IRIDIUM 116             
1 43072U 17083C   26023.51507118  .00000172  00000+0  54367-4 0  9994
2 43072  86.3954  22.4578 0002097  80.0019 280.1413 14.34218265423438
IRIDIUM 130             
1 43073U 17083D   26023.97174862  .00000180  00000+0  57111-4 0  9990
2 43073  86.3960  22.5281 0002269  80.4057 279.7395 14.34217896423448
IRIDIUM 151             
1 43074U 17083E   26023.94637626  .00000124  00000+0  37176-4 0  9997
2 43074  86.3958  22.3320 0002152  88.4283 271.7159 14.34218905423462
IRIDIUM 134             
1 43075U 17083F   26023.98443058  .00000276  00000+0  91658-4 0  9999
2 43075  86.3958  22.3222 0002283  84.7991 275.3465 14.34217635423430
IRIDIUM 137             
1 43076U 17083G   26023.92734953 -.00000056  00000+0 -27049-4 0  9992
2 43076  86.3957  22.4361 0001617  81.0356 279.1023 14.34216950423497
IRIDIUM 141             
1 43077U 17083H   26023.92100765  .00000404  00000+0  13703-3 0  9997
2 43077  86.3957  22.2773 0002218  90.7462 269.3988 14.34217547423490
IRIDIUM 153             
1 43078U 17083J   26023.87317789  .00000569  00000+0  19627-3 0  9991
2 43078  86.3995 350.7971 0002478  89.8798 270.2682 14.34220492424598
IRIDIUM 131             
1 43079U 17083K   26023.69901737  .00000282  00000+0  93725-4 0  9998
2 43079  86.3961  22.5466 0002174  91.1399 269.0046 14.34217605423390
